GSAT0101 (PRN E11)      
1 37846U 11060A   17049.72200262 -.00000023  00000-0  00000+0 0  9993
2 37846  55.7367  75.0283 0004871 312.3976  47.6181  1.70473885 33184
GSAT0102 (PRN E12)      
1 37847U 11060B   17049.59249205 -.00000024  00000-0  00000+0 0  9990
2 37847  55.7373  75.0314 0006222 299.0866  23.9038  1.70476052 33185
GSAT0103 (PRN E19)      
1 38857U 12055A   17049.17956839  .00000030  00000-0  00000-0 0  9996
2 38857  54.9145 195.3258 0002565 211.7114 148.2297  1.70473746 27099
GSAT0104 (PRN E20)      
1 38858U 12055B   17050.28707337  .00000030  00000-0  00000+0 0  9997
2 38858  54.9160 195.2940 0001667 194.1004 165.8523  1.70473782 27062
GSAT0201 (PRN E18)      
1 40128U 14050A   17051.63432291 -.00000048  00000-0  00000+0 0  9991
2 40128  50.2424  49.8828 1611914  59.4524 315.5306  1.85519918 17115
GSAT0202 (PRN E14)      
1 40129U 14050B   17051.36336780 -.00000050  00000-0  00000+0 0  9991
2 40129  50.2967  48.8864 1612597  60.4818 314.6869  1.85520485 17309
GSAT0203 (PRN E26)      
1 40544U 15017A   17050.09130188 -.00000021  00000-0  00000+0 0  9997
2 40544  55.5257  75.3257 0004575 256.4649 103.5421  1.70475729 11802
GSAT0204 (PRN E22)      
1 40545U 15017B   17051.63422706 -.00000011  00000-0  00000+0 0  9998
2 40545  55.5333  75.2927 0002280 242.2407 117.7986  1.70475826 11842
GSAT0205 (PRN E24)      
1 40889U 15045A   17051.87314991 -.00000045  00000-0  00000+0 0  9999
2 40889  57.0951 315.2954 0004377   2.3355 357.7123  1.70474448  8999
GSAT0206 (PRN E30)      
1 40890U 15045B   17049.74676332 -.00000055  00000-0  00000+0 0  9995
2 40890  57.0957 315.3504 0002821 355.3678   4.6734  1.70474519  8984
GSAT0209 (PRN E09)      
1 41174U 15079A   17046.39984247  .00000023  00000-0  00000-0 0  9998
2 41174  54.9284 195.0890 0003072 292.1215  67.7919  1.70473890  6832
GSAT0208 (PRN E08)      
1 41175U 15079B   17050.72589184  .00000029  00000-0  00000+0 0  9997
2 41175  54.9267 194.9704 0002216 288.3783  71.5545  1.70473993  7329
GSAT0211 (PRN E02)      
1 41549U 16030A   17049.67205533 -.00000055  00000-0  00000-0 0  9996
2 41549  57.2353 315.0861 0003501 316.5511  43.4655  1.70474272  4617
GSAT0210 (PRN E01)      
1 41550U 16030B   17049.96532907 -.00000054  00000-0  00000+0 0  9996
2 41550  57.2346 315.0802 0002357 290.4628  69.5561  1.70474208  4606
GSAT0207 (PRN E07)      
1 41859U 16069A   17047.28020812  .00000026  00000-0  00000-0 0  9999
2 41859  54.5887 195.7346 0002804 270.9269  88.9912  1.70473906  1465
GSAT0212 (PRN E03)      
1 41860U 16069B   17051.23964180  .00000029  00000-0  00000+0 0  9998
2 41860  54.5859 195.6252 0001812 299.5536  60.3846  1.70473900  1625
GSAT0213 (PRN E04)      
1 41861U 16069C   17051.01964348  .00000029  00000-0  00000+0 0  9991
2 41861  54.5883 195.6331 0002431 226.8109 133.1254  1.70473937  1619
GSAT0214 (PRN E05)      
1 41862U 16069D   17048.81996077  .00000029  00000-0  00000+0 0  9990
2 41862  54.5867 195.6914 0001672 220.8141 139.1290  1.70473945  1575
